[
    {
        "Altitude(m)": 554979.4871693657,
        "Argument of Periapsis(deg)": 0.033114955553567506,
        "Eccentricity": 0.0,
        "Inclination(deg)": 53.0,
        "Latitude(deg)": -4.794090786394941,
        "Longitude(deg)": 22.40864327756375,
        "Mean Anomaly(deg)": -5.90553566211204,
        "RAAN(deg)": 129.9507168426401,
        "Satellite Name": "Starlink Shell 1 590",
        "Satellite Number": 590,
        "Semi-Major Axis(m)": 6931778.249405717,
        "Time(s)": 950
    },
    {
        "Altitude(m)": 554889.3639509011,
        "Argument of Periapsis(deg)": 0.03346353403307874,
        "Eccentricity": 0.0,
        "Inclination(deg)": 53.0,
        "Latitude(deg)": -4.2911696987088455,
        "Longitude(deg)": 22.74630257745079,
        "Mean Anomaly(deg)": -5.278704458555268,
        "RAAN(deg)": 129.9501980725626,
        "Satellite Name": "Starlink Shell 1 590",
        "Satellite Number": 590,
        "Semi-Major Axis(m)": 6931778.249405717,
        "Time(s)": 960
    },
    {
        "Altitude(m)": 554801.9215721699,
        "Argument of Periapsis(deg)": 0.03381211251258998,
        "Eccentricity": 0.0,
        "Inclination(deg)": 53.0,
        "Latitude(deg)": -3.78804292014661,
        "Longitude(deg)": 23.083475046043684,
        "Mean Anomaly(deg)": -4.6518732549985975,
        "RAAN(deg)": 129.94967930248515,
        "Satellite Name": "Starlink Shell 1 590",
        "Satellite Number": 590,
        "Semi-Major Axis(m)": 6931778.249405717,
        "Time(s)": 970
    },
    {
        "Altitude(m)": 554717.1787973731,
        "Argument of Periapsis(deg)": 0.034160690992101214,
        "Eccentricity": 0.0,
        "Inclination(deg)": 53.0,
        "Latitude(deg)": -3.284733690441166,
        "Longitude(deg)": 23.420218973779125,
        "Mean Anomaly(deg)": -4.025042051441953,
        "RAAN(deg)": 129.94916053240766,
        "Satellite Name": "Starlink Shell 1 590",
        "Satellite Number": 590,
        "Semi-Major Axis(m)": 6931778.249405717,
        "Time(s)": 980
    },
    {
        "Altitude(m)": 554635.1530638608,
        "Argument of Periapsis(deg)": 0.034509269471612446,
        "Eccentricity": 0.0,
        "Inclination(deg)": 53.0,
        "Latitude(deg)": -2.7812651645671345,
        "Longitude(deg)": 23.756592970979327,
        "Mean Anomaly(deg)": -3.3982108478852067,
        "RAAN(deg)": 129.94864176233023,
        "Satellite Name": "Starlink Shell 1 590",
        "Satellite Number": 590,
        "Semi-Major Axis(m)": 6931778.249405717,
        "Time(s)": 990
    }
]